[{"OBJECT_NAME":"STARLINK-6205","OBJECT_ID":"2023-083Y","EPOCH":"2026-03-09T22:00:01.999584","MEAN_MOTION":15.14035964,"ECCENTRICITY":0.00018199,"INCLINATION":43.0003,"RA_OF_ASC_NODE":79.6562,"ARG_OF_PERICENTER":276.7987,"MEAN_ANOMALY":125.782,"EPHEMERIS_TYPE":0,"CLASSIFICATION_TYPE":"U","NORAD_CAT_ID":56898,"ELEMENT_SET_NO":999,"REV_AT_EPOCH":557,"BSTAR":0.0035526049,"MEAN_MOTION_DOT":0.00066103,"MEAN_MOTION_DDOT":0},{"OBJECT_NAME":"YUNYAO-1 20","OBJECT_ID":"2024-009C","EPOCH":"2026-03-08T20:04:07.118400","MEAN_MOTION":15.16183881,"ECCENTRICITY":0.00041003,"INCLINATION":49.9782,"RA_OF_ASC_NODE":295.7086,"ARG_OF_PERICENTER":240.5093,"MEAN_ANOMALY":119.545,"EPHEMERIS_TYPE":0,"CLASSIFICATION_TYPE":"U","NORAD_CAT_ID":58760,"ELEMENT_SET_NO":999,"REV_AT_EPOCH":11945,"BSTAR":0.00086011301,"MEAN_MOTION_DOT":0.00016572,"MEAN_MOTION_DDOT":0}]
